{
  "type": "FeatureCollection",
  "features": [
    {
      "type": "Feature",
      "properties": {
        "norad_id": 34886,
        "name": "COSMOS 2251 DEB",
        "group": "cosmos-2251-debris",
        "lat": 42.957864305534436,
        "lon": -164.988332518406,
        "alt_km": 430.4664906216158,
        "timestamp": "2025-12-13T10:41:26.161577+00:00",
        "meta_object_name": "COSMOS 2251 DEB",
        "meta_object_id": "1993-036ACZ",
        "meta_epoch": "2025-12-12T22:00:46.238976",
        "meta_mean_motion": 15.3868294,
        "meta_eccentricity": 0.0030604,
        "meta_inclination": 73.9501,
        "meta_ra_of_asc_node": 180.6071,
        "meta_arg_of_pericenter": 3.9755,
        "meta_mean_anomaly": 356.1689,
        "meta_ephemeris_type": 0,
        "meta_classification_type": "U",
        "meta_norad_cat_id": 34886,
        "meta_element_set_no": 999,
        "meta_rev_at_epoch": 63001,
        "meta_bstar": 0.002242925,
        "meta_mean_motion_dot": 0.00088092,
        "meta_mean_motion_ddot": 0,
        "tle_line1": "1 34886U 93036ACZ 25346.91720184  .00088092  00000+0  22429-2 0  9999",
        "tle_line2": "2 34886  73.9501 180.6071 0030604   3.9755 356.1689 15.38682940630015"
      },
      "geometry": {
        "type": "Point",
        "coordinates": [
          -164.988332518406,
          42.957864305534436
        ]
      }
    },
    {
      "type": "Feature",
      "properties": {
        "norad_id": 34907,
        "name": "COSMOS 2251 DEB",
        "group": "cosmos-2251-debris",
        "lat": -12.054046045652795,
        "lon": 43.350332637223154,
        "alt_km": 422.97169676115755,
        "timestamp": "2025-12-13T10:41:26.161587+00:00",
        "meta_object_name": "COSMOS 2251 DEB",
        "meta_object_id": "1993-036ADC",
        "meta_epoch": "2025-12-12T14:31:54.148512",
        "meta_mean_motion": 15.43892935,
        "meta_eccentricity": 0.00204742,
        "meta_inclination": 73.9699,
        "meta_ra_of_asc_node": 48.7037,
        "meta_arg_of_pericenter": 341.6938,
        "meta_mean_anomaly": 18.3532,
        "meta_ephemeris_type": 0,
        "meta_classification_type": "U",
        "meta_norad_cat_id": 34907,
        "meta_element_set_no": 999,
        "meta_rev_at_epoch": 87971,
        "meta_bstar": 0.0091335988,
        "meta_mean_motion_dot": 0.00442182,
        "meta_mean_motion_ddot": 0,
        "tle_line1": "1 34907U 93036ADC 25346.60548783  .00442182  00000+0  91336-2 0  9999",
        "tle_line2": "2 34907  73.9699  48.7037 0020474 341.6938  18.3532 15.43892935879711"
      },
      "geometry": {
        "type": "Point",
        "coordinates": [
          43.350332637223154,
          -12.054046045652795
        ]
      }
    },
    {
      "type": "Feature",
      "properties": {
        "norad_id": 34908,
        "name": "COSMOS 2251 DEB",
        "group": "cosmos-2251-debris",
        "lat": 51.122822361409405,
        "lon": -178.40211677831996,
        "alt_km": 760.6996709554824,
        "timestamp": "2025-12-13T10:41:26.161598+00:00",
        "meta_object_name": "COSMOS 2251 DEB",
        "meta_object_id": "1993-036ADD",
        "meta_epoch": "2025-12-12T13:06:00.902592",
        "meta_mean_motion": 14.37397664,
        "meta_eccentricity": 0.00400396,
        "meta_inclination": 74.0593,
        "meta_ra_of_asc_node": 24.0128,
        "meta_arg_of_pericenter": 40.1694,
        "meta_mean_anomaly": 112.0298,
        "meta_ephemeris_type": 0,
        "meta_classification_type": "U",
        "meta_norad_cat_id": 34908,
        "meta_element_set_no": 999,
        "meta_rev_at_epoch": 87276,
        "meta_bstar": 0.00078891814,
        "meta_mean_motion_dot": 2.354e-05,
        "meta_mean_motion_ddot": 0,
        "tle_line1": "1 34908U 93036ADD 25346.54584378  .00002354  00000+0  78892-3 0  9999",
        "tle_line2": "2 34908  74.0593  24.0128 0040039  40.1694 112.0298 14.37397664872764"
      },
      "geometry": {
        "type": "Point",
        "coordinates": [
          -178.40211677831996,
          51.122822361409405
        ]
      }
    },
    {
      "type": "Feature",
      "properties": {
        "norad_id": 34909,
        "name": "COSMOS 2251 DEB",
        "group": "cosmos-2251-debris",
        "lat": 1.973532842991923,
        "lon": 75.75136028127962,
        "alt_km": 690.4805433979127,
        "timestamp": "2025-12-13T10:41:26.161608+00:00",
        "meta_object_name": "COSMOS 2251 DEB",
        "meta_object_id": "1993-036ADE",
        "meta_epoch": "2025-12-11T16:26:21.719904",
        "meta_mean_motion": 14.7782075,
        "meta_eccentricity": 0.00845921,
        "meta_inclination": 74.0142,
        "meta_ra_of_asc_node": 78.6447,
        "meta_arg_of_pericenter": 214.714,
        "meta_mean_anomaly": 144.85,
        "meta_ephemeris_type": 0,
        "meta_classification_type": "U",
        "meta_norad_cat_id": 34909,
        "meta_element_set_no": 999,
        "meta_rev_at_epoch": 66836,
        "meta_bstar": 0.00098598419,
        "meta_mean_motion_dot": 7.492e-05,
        "meta_mean_motion_ddot": 0,
        "tle_line1": "1 34909U 93036ADE 25345.68497361  .00007492  00000+0  98598-3 0  9992",
        "tle_line2": "2 34909  74.0142  78.6447 0084592 214.7140 144.8500 14.77820750668360"
      },
      "geometry": {
        "type": "Point",
        "coordinates": [
          75.75136028127962,
          1.973532842991923
        ]
      }
    },
    {
      "type": "Feature",
      "properties": {
        "norad_id": 34910,
        "name": "COSMOS 2251 DEB",
        "group": "cosmos-2251-debris",
        "lat": -30.47779700251932,
        "lon": 90.51570681601626,
        "alt_km": 1223.9605781536084,
        "timestamp": "2025-12-13T10:41:26.161618+00:00",
        "meta_object_name": "COSMOS 2251 DEB",
        "meta_object_id": "1993-036ADF",
        "meta_epoch": "2025-12-04T03:27:09.174816",
        "meta_mean_motion": 13.3765034,
        "meta_eccentricity": 0.04679235,
        "meta_inclination": 73.8763,
        "meta_ra_of_asc_node": 114.9889,
        "meta_arg_of_pericenter": 235.2756,
        "meta_mean_anomaly": 311.3517,
        "meta_ephemeris_type": 0,
        "meta_classification_type": "U",
        "meta_norad_cat_id": 34910,
        "meta_element_set_no": 999,
        "meta_rev_at_epoch": 81409,
        "meta_bstar": 0.0018660381,
        "meta_mean_motion_dot": 1.821e-05,
        "meta_mean_motion_ddot": 0,
        "tle_line1": "1 34910U 93036ADF 25338.14385619  .00001821  00000+0  18660-2 0  9990",
        "tle_line2": "2 34910  73.8763 114.9889 0467923 235.2756 311.3517 13.37650340814099"
      },
      "geometry": {
        "type": "Point",
        "coordinates": [
          90.51570681601626,
          -30.47779700251932
        ]
      }
    },
    {
      "type": "Feature",
      "properties": {
        "norad_id": 34911,
        "name": "COSMOS 2251 DEB",
        "group": "cosmos-2251-debris",
        "lat": 48.553378587196484,
        "lon": -97.69202200126462,
        "alt_km": 646.8023704689458,
        "timestamp": "2025-12-13T10:41:26.161628+00:00",
        "meta_object_name": "COSMOS 2251 DEB",
        "meta_object_id": "1993-036ADG",
        "meta_epoch": "2025-12-12T03:54:43.347744",
        "meta_mean_motion": 14.59370675,
        "meta_eccentricity": 0.00835656,
        "meta_inclination": 74.0412,
        "meta_ra_of_asc_node": 245.8432,
        "meta_arg_of_pericenter": 11.3776,
        "meta_mean_anomaly": 144.4363,
        "meta_ephemeris_type": 0,
        "meta_classification_type": "U",
        "meta_norad_cat_id": 34911,
        "meta_element_set_no": 999,
        "meta_rev_at_epoch": 88578,
        "meta_bstar": 0.00025463849,
        "meta_mean_motion_dot": 1.233e-05,
        "meta_mean_motion_ddot": 0,
        "tle_line1": "1 34911U 93036ADG 25346.16300171  .00001233  00000+0  25464-3 0  9990",
        "tle_line2": "2 34911  74.0412 245.8432 0083565  11.3776 144.4363 14.59370675885786"
      },
      "geometry": {
        "type": "Point",
        "coordinates": [
          -97.69202200126462,
          48.553378587196484
        ]
      }
    },
    {
      "type": "Feature",
      "properties": {
        "norad_id": 34913,
        "name": "COSMOS 2251 DEB",
        "group": "cosmos-2251-debris",
        "lat": -9.03172881780944,
        "lon": -81.40290780434202,
        "alt_km": 768.9306200464471,
        "timestamp": "2025-12-13T10:41:26.161638+00:00",
        "meta_object_name": "COSMOS 2251 DEB",
        "meta_object_id": "1993-036ADJ",
        "meta_epoch": "2025-12-10T13:00:18.152064",
        "meta_mean_motion": 14.346364,
        "meta_eccentricity": 0.0020264,
        "meta_inclination": 74.0283,
        "meta_ra_of_asc_node": 286.5252,
        "meta_arg_of_pericenter": 37.1811,
        "meta_mean_anomaly": 83.6827,
        "meta_ephemeris_type": 0,
        "meta_classification_type": "U",
        "meta_norad_cat_id": 34913,
        "meta_element_set_no": 999,
        "meta_rev_at_epoch": 65156,
        "meta_bstar": 9.4175e-05,
        "meta_mean_motion_dot": 2.41e-06,
        "meta_mean_motion_ddot": 0,
        "tle_line1": "1 34913U 93036ADJ 25344.54187676  .00000241  00000+0  94175-4 0  9999",
        "tle_line2": "2 34913  74.0283 286.5252 0020264  37.1811  83.6827 14.34636400651569"
      },
      "geometry": {
        "type": "Point",
        "coordinates": [
          -81.40290780434202,
          -9.03172881780944
        ]
      }
    }
  ]
}